STARLINK-31863          
1 59789U 24093H   26068.46042682  .00000928  00000+0  43258-4 0  9994
2 59789  43.0004 209.9087 0001219 266.9233  93.1479 15.27574977102662
YAM-7                   
1 60504U 24149AN  26068.71799904  .00009009  00000+0  30984-3 0  9997
2 60504  97.3828 149.4631 0001973 296.5121  63.5918 15.30304554 86835
